[{"OBJECT_NAME":"STARLINK-31246","OBJECT_ID":"2024-017K","EPOCH":"2026-03-09T15:57:15.385824","MEAN_MOTION":15.30192976,"ECCENTRICITY":8.741e-5,"INCLINATION":53.1589,"RA_OF_ASC_NODE":204.345,"ARG_OF_PERICENTER":94.8843,"MEAN_ANOMALY":265.2258,"EPHEMERIS_TYPE":0,"CLASSIFICATION_TYPE":"U","NORAD_CAT_ID":58835,"ELEMENT_SET_NO":999,"REV_AT_EPOCH":12005,"BSTAR":7.121923e-6,"MEAN_MOTION_DOT":-1.48e-6,"MEAN_MOTION_DDOT":0},{"OBJECT_NAME":"KUIPER-00213","OBJECT_ID":"2026-030P","EPOCH":"2026-03-09T22:00:01.999584","MEAN_MOTION":15.32626943,"ECCENTRICITY":0.00152813,"INCLINATION":51.8816,"RA_OF_ASC_NODE":218.5142,"ARG_OF_PERICENTER":64.2462,"MEAN_ANOMALY":206.8369,"EPHEMERIS_TYPE":0,"CLASSIFICATION_TYPE":"U","NORAD_CAT_ID":67777,"ELEMENT_SET_NO":999,"REV_AT_EPOCH":502,"BSTAR":0.0016072376,"MEAN_MOTION_DOT":0.00051551,"MEAN_MOTION_DDOT":0}]
